IRIDIUM 150             
1 43257U 18030J   24231.04480638  .00000815  00000+0  28380-3 0  9995
2 43257  86.3987 209.6734 0002087  82.5822 277.5611 14.34220565334415
IRIDIUM 143             
1 43258U 18030K   24231.44439300  .00001041  00000+0  36474-3 0  9995
2 43258  86.3990 209.5728 0001996  87.0349 273.1075 14.34218938334411
IRIDIUM 161             
1 43478U 18047C   24231.44361252  .00001460  00000+0  42796-3 0  9996
2 43478  86.4526   7.5153 0001992  88.0919 272.0510 14.43277452328825
IRIDIUM 152             
1 43479U 18047D   24230.78919028  .00000319  00000+0  10687-3 0  9999
2 43479  86.4000   7.6484 0002063  90.0871 270.0561 14.34210917326680
IRIDIUM 147             
1 43480U 18047E   24230.79553149  .00000763  00000+0  26554-3 0  9993
2 43480  86.3993   7.6376 0002247  93.1278 267.0175 14.34211630326681
IRIDIUM 110             
1 43481U 18047F   24231.42978303  .00001092  00000+0  38284-3 0  9997
2 43481  86.4002   7.4484 0002669  89.8986 270.2516 14.34213495326763
IRIDIUM 162             
1 43482U 18047G   24230.81328852  .00001313  00000+0  38451-3 0  9990
2 43482  86.4525   7.6779 0002349  88.4614 271.6856 14.43254047328729
